#dP2022  9 15 12  0  0.00000000      96 __u+U ITR00 EXT  IAC
## 2227 388800.00000000   900.00000000 59837 0.5000000000000
+  115   C06C07C08C09C10C11C12C13C14C16C19C20C21C22C23C24C25
+        C26C27C28C29C30C32C33C34C35C36C37C38C39C40C41C42C43
+        C44C45C46E01E02E03E04E05E07E08E09E10E11E12E13E15E18
+        E19E21E24E25E26E27E30E31E33E34E36G01G02G03G04G05G06
+        G07G08G09G10G11G12G13G14G15G16G17G18G19G20G21G22G24
+        G25G26G27G28G29G30G31G32J02J03R01R02R03R04R05R07R08
+        R09R11R12R13R14R15R17R18R19R20R21R24R25  0  0  0  0
++        14  9 10 10  7 11 14  9  9 14  9  8  9  9  9  8  8
++         9  7  8  9  9  7  9  7  8  8  7  9  9  9  9 10  8
++         7  9  9  8  8  8  7  7  7  6  8  9  8  8  7  8  8
++         8  7  7  7  7  8  7  8  9  6  7  7  7  8  7  7  7
++         8  7  6  7  8  7  8  8  7  7  7  8  7  7  7  7 11
++         6  6  7  6  7  8  8  7  8  9  8  6  8  9  8  7  8
++         7  7  8  8  8  9  8  8  9  9  7 10 10  0  0  0  0
%c M  cc GPS ccc cccc cccc cccc cccc ccccc ccccc ccccc ccccc
%c cc cc ccc ccc cccc cccc cccc cccc ccccc ccccc ccccc ccccc
%f  0.0000000  0.000000000  0.00000000000  0.000000000000000
%f  0.0000000  0.000000000  0.00000000000  0.000000000000000
%i    0    0    0    0      0      0      0      0         0
%i    0    0    0    0      0      0      0      0         0
/* IAC                                ULTRA-RAPID PREDICTION
/* S/V CLOCKS ARE ALIGNED TO GNSS TIME                      
/* G:C1WC2W R:C1PC2P E:C1XC5X C:C2IC6I J:C1CC2S             
/* PCV:IGS14_2218 OL/AL:FES2004  NONE     YN ORB:CoN CLK:CoN
*  2022 09 15 14 15  0.00000000
PC06 -18876.487615  30723.995535  21673.495450    844.543429
PC07  -6199.231471  39001.823108  15052.783596   -144.830145
PC08  -4274.680345  20835.059533 -36402.502534    471.842607
PC09 -10014.979981  29452.121103  28600.286361   -862.945236
PC10   -555.721269  41478.485103   9249.304273     96.392152
PC11  19021.581890 -19541.279234   5886.113277   -407.477677
PC12  23718.158779  -9040.178175 -11530.203755   -517.286432
PC13   3566.320196  24524.876299 -33934.153603     81.219995
PC14   7957.987749 -21061.663161  16462.242153    654.357945
PC16 -22216.037308  30359.098137  18948.257746    137.541974
PC19  -1528.900011  26505.142085  -8609.363075   -660.418914
PC20 -12124.139351  14052.930473 -20843.541654    614.988750
PC21  16159.078209   7847.906358  21367.201706   -401.280297
PC22  10375.772955  24252.091219   9135.120653   -633.776109
PC23 -16410.453329 -17344.873845 -14435.387897    -95.917653
PC24  21606.626019  -4864.674139 -16964.859972   -155.595916
PC25   2169.466327 -16361.269133 -22508.159496   -677.848361
PC26  26777.859426   7238.163442  -2880.414758     -7.889505
PC27 -21381.639130   1240.154143  17866.692627     21.294247
PC28  -8148.249023 -13765.268354  22868.859459     13.278651
PC29 -10115.460252  21792.857159 -14205.900735     13.894701
PC30 -22395.258319  16303.498525   3307.825191    502.962278
PC32 -16218.599049  -7800.460954 -21318.367474   -802.448118
PC33   1471.471250 -26459.118313   8719.274244   -669.307128
PC34  22083.881553 -16927.968359  -2237.097996   -312.988383
PC35   7403.110194  14494.184704 -22674.256767    460.087532
PC36  -3238.742954  16105.067395  22587.327365   -220.932454
PC37 -26476.776841  -8700.198736   1679.990764   -203.628625
PC38 -13338.548905  19299.420241 -35035.399467     24.430562
PC39 -25062.196614  30944.062683  13577.060339     -0.434745
PC40 -10616.601706  36201.682046  19043.777758     -4.198434
PC41 -10174.842169 -24507.067591  -8594.413844    -81.201268
PC42  12696.886760 -12843.077520  21304.135176   -299.922149
PC43  10819.342078 -21861.732428  13560.870559     14.389440
PC44  21326.581692  -1739.139626 -17937.742074     50.960911
PC45  16715.913545  17203.167149  14249.827159    861.611065
PC46 -20426.553490   5988.502472  18072.966097   -543.116023
PE01  -6788.428303 -24663.865410 -14886.337756   -528.554504
PE02   6925.033716  24699.623570  14764.202066    324.860374
PE03  -2693.109252  27586.967293  10398.180038   -600.120422
PE04 -11266.790184 -15295.335744 -22697.814184  -1116.027561
PE05 -15367.690764  23906.448668  -8282.136188   -143.753663
PE07  18910.595110  -6389.156409  21854.974320   -705.553228
PE08  11232.363124  15142.685653  22817.942054   -599.203111
PE09 -18765.504522   6388.008866 -21988.279641   -659.477390
PE10 -26821.163360  -3363.756605  12068.966079   -477.015270
PE11 -29322.406372   3501.399906   1999.490772   2210.789836
PE12 -20246.122103  -9433.643102  19414.899438   -170.636391
PE13  29305.283688  -3040.292627  -2825.108544    430.577697
PE15  20074.023142   9445.410766 -19590.639478    720.241947
PE18  15947.974980  12558.208407 -24164.590085   -973.264843
PE19   4732.256257 -28066.642446  -8129.561699  -4524.192307
PE21   9316.962487 -14567.418016 -24016.927050   -757.881092
PE24 -21612.283384  -5643.541692  19427.917671   -838.316791
PE25  -9572.286323  14323.364580  24083.256169   -587.729166
PE26  20533.032010 -14004.698447  16065.963716  -1616.041555
PE27  21284.619802   4543.471300 -20048.331722   -392.691790
PE30  20205.418709  21335.389066  -3517.138957   -838.836018
PE31 -20626.415437 -20784.888069   4347.171572   -503.621217
PE33    936.623551 -16284.022420  24700.367740   -453.747283
PE34   -715.594709  16273.735953 -24724.966521     -4.642444
PE36 -21263.769142  13627.115817 -15442.166376   -431.851178
PG01   9775.290939  13409.802811 -21128.020419    283.501253
PG02   -239.852309 -15481.806854  22242.308452   -645.947502
PG03  11335.555314  23496.117199  -5406.043082   -351.353540
PG04   2623.881443  20205.598629  16990.993490   -118.341441
PG05  -2455.916038 -21371.967050  15315.026616    -96.766913
PG06  24248.467775  -7042.681239   8424.531343    461.644028
PG07  23215.792798   6988.345711  11817.088078    307.351915
PG08  -3977.345418  24309.543616  -9487.759458    -84.737325
PG09  11878.464268  10259.016386  21347.288470   -295.757075
PG10 -18068.901930  -3640.010457 -19089.003964     -3.397335
PG11  16134.503342 -12174.307721  17212.148950    -16.728699
PG12  -8935.076199 -24336.934940  -6286.099427   -278.745510
PG13  12742.395109 -22976.178621  -3304.631598    388.009476
PG14  18648.851417   5567.969440 -18114.422646   -103.355447
PG15    626.535738 -24690.030112  -9794.985071    -28.800429
PG16  -5192.047505  17522.802054  18827.722089   -524.175171
PG17  17507.641989  -4897.776377 -18946.980468    659.385313
PG18 -23667.835523  -6076.882760  10570.554133     47.665396
PG19  18864.700511 -13565.144625 -12873.285224    211.045853
PG20   8761.394285 -13226.175640  21328.965307    486.216687
PG21    429.067042  14971.130182 -21282.497652    159.407238
PG22 -17923.157437  16558.515534  -9852.908358    328.314694
PG24  -5903.498419 -15097.990248 -21395.968596    134.603071
PG25 -17305.373222 -19783.482952   4437.152726    372.294253
PG26 -12052.291045  10086.018498  21316.799063    228.613972
PG27 -12570.319961  23073.729637   1681.009334    211.198529
PG28  14663.363271  -3792.668516 -21290.736904    338.029572
PG29  -9982.454378 -11646.204072  21627.002409   -551.767978
PG30  26675.763280   -641.666479   1048.065265   -536.970984
PG31 -23997.196885   7503.886923   9105.165132   -193.440455
PG32 -17758.659327   8214.852336 -17721.482697   -234.051481
PJ02 -25948.983447  21899.444340  30032.367397     -5.084241
PJ03 -35403.590612  21760.949658  -2706.459584     -1.636632
PR01  -2503.279729 -24883.996879  -5000.988045     14.783056
PR02  -9205.965707 -12364.594406 -20307.330043    -22.669261
PR03 -10609.387872   6886.750929 -22102.259659     63.761839
PR04  -5989.180511  21885.426364 -11618.505685    157.674906
PR05   1753.735097  24884.796573   5262.926203     99.682114
PR07  10547.909492  -7789.676913  21922.342527     41.015372
PR08   5947.218436 -21986.830075  11566.795630    -67.192727
PR09  22212.798726  12623.438542   -181.311735     76.843876
PR11   6625.051191  -8761.508130 -23007.456783     27.370191
PR12 -11575.190904 -15920.096014 -16202.320076     21.303457
PR13 -21708.012255 -13331.587377  -1305.462940    -26.823077
PR14 -19497.327033  -2329.141627  16288.189451     24.263785
PR15  -5824.797334   9397.034688  23012.881913     93.704335
PR17 -22971.059586   9398.653943   6004.541138    561.294212
PR18 -17694.207408  14884.547416 -10713.395566     42.538692
PR19  -4801.944108  13006.525243 -21415.748177   -203.782057
PR20  15004.047224   2665.289824 -20458.798091    -78.444391
PR21  22989.226334 -10077.454549  -4433.303854   -333.927020
PR24 -15768.725138  -2183.927978  19954.681427    114.727437
PR25  17717.091878 -14478.086113  11309.029691     13.206100
EOF
